*******************************************************************************
Ephemeris / WWW_USER Mon Mar 24 08:35:38 2025 Pasadena, USA      / Horizons    
*******************************************************************************
Target body name: (2018 WD2)                      {source: JPL#7}
Center body name: Earth (399)                     {source: DE441}
Center-site name: Mauna Kea
*******************************************************************************
Start time      : A.D. 2018-Sep-13 04:36:00.0000 UT      
Stop  time      : A.D. 2018-Sep-13 15:59:00.0000 UT      
Step-size       : 1 minutes
*******************************************************************************
Target pole/equ : undefined
Target radii    : undefined                                                    
Center geodetic : 204.5278, 19.8260847, 4.21024   {E-lon(deg),Lat(deg),Alt(km)}
Center cylindric: 204.5278, 6006.35451, 2151.0229 {E-lon(deg),Dxy(km),Dz(km)}
Center pole/equ : ITRF93                          {East-longitude positive}
Center radii    : 6378.137, 6378.137, 6356.752 km {Equator_a, b, pole_c}       
Target primary  : Sun
Vis. interferer : MOON (R_eq= 1737.400) km        {source: DE441}
Rel. light bend : Sun                             {source: DE441}
Rel. lght bnd GM: 1.3271E+11 km^3/s^2                                          
Small-body perts: Yes                             {source: SB441-N16}
Atmos refraction: NO (AIRLESS)
RA format       : HMS
Time format     : CAL 
Calendar mode   : Mixed Julian/Gregorian
RTS-only print  : NO       
EOP file        : eop.250321.p250617                                           
EOP coverage    : DATA-BASED 1962-JAN-20 TO 2025-MAR-21. PREDICTS-> 2025-JUN-16
Units conversion: 1 au= 149597870.700 km, c= 299792.458 km/s, 1 day= 86400.0 s 
Table cut-offs 1: Elevation (-90.0deg=NO ),Airmass (>38.000=NO), Daylight (YES)
Table cut-offs 2: Solar elongation (  0.0,180.0=NO ),Local Hour Angle( 0.0=NO )
Table cut-offs 3: RA/DEC angular rate (     0.0=NO )                           
*******************************************************************************
Initial IAU76/J2000 heliocentric ecliptic osculating elements (au, days, deg.):
  EPOCH=  2458442.5 ! 2018-Nov-20.00 (TDB)         Residual RMS= .32422        
   EC= .524986067713519    QR= .9778174985080528   TP= 2458471.2675125618      
   OM= 251.0855257113189   W=  198.8561547827716   IN= 2.860917524648221       
  Equivalent ICRF heliocentric cartesian coordinates (au, au/d):
   X= 5.933978759455335E-01  Y= 7.796199626272187E-01  Z= 3.534710331364960E-01
  VX=-1.894544763705440E-02 VY= 7.774789113426014E-03 VZ= 2.252803318104249E-03
Asteroid physical parameters (km, seconds, rotational period in hours):        
   GM= n.a.                RAD= n.a.               ROTPER= n.a.                
   H= 26.2                 G= .150                 B-V= n.a.                   
                           ALBEDO= n.a.            STYP= n.a.                  
*******************************************************************************
 Date__(UT)__HR:MN     R.A._________(ICRF)_________DEC
******************************************************
$$SOE
 2018-Sep-13 04:36 Cm  01 08 20.933739 +15 26 10.59959
 2018-Sep-13 04:37 Cm  01 08 20.950036 +15 26 10.94132
 2018-Sep-13 04:38 Cm  01 08 20.966313 +15 26 11.28307
 2018-Sep-13 04:39 Cm  01 08 20.982570 +15 26 11.62485
 2018-Sep-13 04:40 Cm  01 08 20.998807 +15 26 11.96666
 2018-Sep-13 04:41 Cm  01 08 21.015024 +15 26 12.30850
 2018-Sep-13 04:42 Cm  01 08 21.031221 +15 26 12.65036
 2018-Sep-13 04:43 Cm  01 08 21.047398 +15 26 12.99224
 2018-Sep-13 04:44 Cm  01 08 21.063555 +15 26 13.33416
 2018-Sep-13 04:45 Cm  01 08 21.079691 +15 26 13.67609
 2018-Sep-13 04:46 Cm  01 08 21.095807 +15 26 14.01805
 2018-Sep-13 04:47 Cm  01 08 21.111903 +15 26 14.36004
 2018-Sep-13 04:48 Cm  01 08 21.127979 +15 26 14.70205
 2018-Sep-13 04:49 Cm  01 08 21.144034 +15 26 15.04408
 2018-Sep-13 04:50 Nm  01 08 21.160069 +15 26 15.38614
 2018-Sep-13 04:51 Nm  01 08 21.176083 +15 26 15.72822
 2018-Sep-13 04:52 Nm  01 08 21.192077 +15 26 16.07032
 2018-Sep-13 04:53 Nm  01 08 21.208051 +15 26 16.41245
 2018-Sep-13 04:54 Nm  01 08 21.224004 +15 26 16.75460
 2018-Sep-13 04:55 Nm  01 08 21.239937 +15 26 17.09676
 2018-Sep-13 04:56 Nm  01 08 21.255849 +15 26 17.43895
 2018-Sep-13 04:57 Nm  01 08 21.271740 +15 26 17.78117
 2018-Sep-13 04:58 Nm  01 08 21.287611 +15 26 18.12340
 2018-Sep-13 04:59 Nm  01 08 21.303461 +15 26 18.46565
 2018-Sep-13 05:00 Nm  01 08 21.319291 +15 26 18.80792
 2018-Sep-13 05:01 Nm  01 08 21.335100 +15 26 19.15021
 2018-Sep-13 05:02 Nm  01 08 21.350888 +15 26 19.49252
 2018-Sep-13 05:03 Nm  01 08 21.366656 +15 26 19.83485
 2018-Sep-13 05:04 Nm  01 08 21.382403 +15 26 20.17720
 2018-Sep-13 05:05 Nm  01 08 21.398129 +15 26 20.51957
 2018-Sep-13 05:06 Nm  01 08 21.413834 +15 26 20.86195
 2018-Sep-13 05:07 Nm  01 08 21.429519 +15 26 21.20436
 2018-Sep-13 05:08 Nm  01 08 21.445182 +15 26 21.54678
 2018-Sep-13 05:09 Nm  01 08 21.460825 +15 26 21.88921
 2018-Sep-13 05:10 Nm  01 08 21.476447 +15 26 22.23167
 2018-Sep-13 05:11 Nm  01 08 21.492048 +15 26 22.57414
 2018-Sep-13 05:12 Nm  01 08 21.507628 +15 26 22.91662
 2018-Sep-13 05:13 Nm  01 08 21.523187 +15 26 23.25912
 2018-Sep-13 05:14 Nm  01 08 21.538725 +15 26 23.60164
 2018-Sep-13 05:15 Am  01 08 21.554242 +15 26 23.94417
 2018-Sep-13 05:16 Am  01 08 21.569739 +15 26 24.28672
 2018-Sep-13 05:17 Am  01 08 21.585214 +15 26 24.62928
 2018-Sep-13 05:18 Am  01 08 21.600668 +15 26 24.97185
 2018-Sep-13 05:19 Am  01 08 21.616101 +15 26 25.31444
 2018-Sep-13 05:20 Am  01 08 21.631513 +15 26 25.65704
 2018-Sep-13 05:21 Am  01 08 21.646904 +15 26 25.99965
 2018-Sep-13 05:22 Am  01 08 21.662273 +15 26 26.34228
 2018-Sep-13 05:23 Am  01 08 21.677622 +15 26 26.68491
 2018-Sep-13 05:24 Am  01 08 21.692950 +15 26 27.02756
 2018-Sep-13 05:25 Am  01 08 21.708256 +15 26 27.37023
 2018-Sep-13 05:26 Am  01 08 21.723541 +15 26 27.71290
 2018-Sep-13 05:27 Am  01 08 21.738805 +15 26 28.05558
 2018-Sep-13 05:28 Ar  01 08 21.754048 +15 26 28.39827
 2018-Sep-13 05:29 Am  01 08 21.769269 +15 26 28.74098
 2018-Sep-13 05:30 Am  01 08 21.784469 +15 26 29.08369
 2018-Sep-13 05:31 Am  01 08 21.799648 +15 26 29.42641
 2018-Sep-13 05:32 Am  01 08 21.814806 +15 26 29.76915
 2018-Sep-13 05:33 Am  01 08 21.829942 +15 26 30.11189
 2018-Sep-13 05:34 Am  01 08 21.845058 +15 26 30.45463
 2018-Sep-13 05:35 Am  01 08 21.860151 +15 26 30.79739
 2018-Sep-13 05:36 Am  01 08 21.875224 +15 26 31.14016
 2018-Sep-13 05:37 Am  01 08 21.890275 +15 26 31.48293
 2018-Sep-13 05:38 Am  01 08 21.905305 +15 26 31.82571
 2018-Sep-13 05:39 Am  01 08 21.920313 +15 26 32.16849
 2018-Sep-13 05:40 Am  01 08 21.935301 +15 26 32.51128
 2018-Sep-13 05:41  m  01 08 21.950266 +15 26 32.85408
 2018-Sep-13 05:42  m  01 08 21.965211 +15 26 33.19688
 2018-Sep-13 05:43  m  01 08 21.980134 +15 26 33.53969
 2018-Sep-13 05:44  m  01 08 21.995035 +15 26 33.88250
 2018-Sep-13 05:45  m  01 08 22.009915 +15 26 34.22532
 2018-Sep-13 05:46  m  01 08 22.024774 +15 26 34.56814
 2018-Sep-13 05:47  m  01 08 22.039612 +15 26 34.91097
 2018-Sep-13 05:48  m  01 08 22.054427 +15 26 35.25379
 2018-Sep-13 05:49  m  01 08 22.069222 +15 26 35.59663
 2018-Sep-13 05:50  m  01 08 22.083995 +15 26 35.93946
 2018-Sep-13 05:51  m  01 08 22.098746 +15 26 36.28230
 2018-Sep-13 05:52  m  01 08 22.113477 +15 26 36.62514
 2018-Sep-13 05:53  m  01 08 22.128185 +15 26 36.96798
 2018-Sep-13 05:54  m  01 08 22.142872 +15 26 37.31082
 2018-Sep-13 05:55  m  01 08 22.157538 +15 26 37.65366
 2018-Sep-13 05:56  m  01 08 22.172182 +15 26 37.99650
 2018-Sep-13 05:57  m  01 08 22.186805 +15 26 38.33935
 2018-Sep-13 05:58  m  01 08 22.201406 +15 26 38.68219
 2018-Sep-13 05:59  m  01 08 22.215986 +15 26 39.02503
 2018-Sep-13 06:00  m  01 08 22.230544 +15 26 39.36788
 2018-Sep-13 06:01  m  01 08 22.245081 +15 26 39.71072
 2018-Sep-13 06:02  m  01 08 22.259596 +15 26 40.05356
 2018-Sep-13 06:03  m  01 08 22.274090 +15 26 40.39639
 2018-Sep-13 06:04  m  01 08 22.288563 +15 26 40.73923
 2018-Sep-13 06:05  m  01 08 22.303013 +15 26 41.08206
 2018-Sep-13 06:06  m  01 08 22.317443 +15 26 41.42489
 2018-Sep-13 06:07  m  01 08 22.331851 +15 26 41.76772
 2018-Sep-13 06:08  m  01 08 22.346237 +15 26 42.11054
 2018-Sep-13 06:09  m  01 08 22.360602 +15 26 42.45336
 2018-Sep-13 06:10  m  01 08 22.374945 +15 26 42.79618
 2018-Sep-13 06:11  m  01 08 22.389267 +15 26 43.13899
 2018-Sep-13 06:12  m  01 08 22.403567 +15 26 43.48179
 2018-Sep-13 06:13  m  01 08 22.417846 +15 26 43.82459
 2018-Sep-13 06:14  m  01 08 22.432104 +15 26 44.16739
 2018-Sep-13 06:15  m  01 08 22.446340 +15 26 44.51018
 2018-Sep-13 06:16  m  01 08 22.460554 +15 26 44.85296
 2018-Sep-13 06:17  m  01 08 22.474747 +15 26 45.19573
 2018-Sep-13 06:18  m  01 08 22.488918 +15 26 45.53850
 2018-Sep-13 06:19  m  01 08 22.503069 +15 26 45.88126
 2018-Sep-13 06:20  m  01 08 22.517197 +15 26 46.22401
 2018-Sep-13 06:21  m  01 08 22.531304 +15 26 46.56676
 2018-Sep-13 06:22  m  01 08 22.545390 +15 26 46.90949
 2018-Sep-13 06:23  m  01 08 22.559454 +15 26 47.25222
 2018-Sep-13 06:24  m  01 08 22.573497 +15 26 47.59494
 2018-Sep-13 06:25  m  01 08 22.587518 +15 26 47.93765
 2018-Sep-13 06:26  m  01 08 22.601519 +15 26 48.28034
 2018-Sep-13 06:27  m  01 08 22.615497 +15 26 48.62303
 2018-Sep-13 06:28  m  01 08 22.629454 +15 26 48.96571
 2018-Sep-13 06:29  m  01 08 22.643390 +15 26 49.30838
 2018-Sep-13 06:30  m  01 08 22.657305 +15 26 49.65103
 2018-Sep-13 06:31  m  01 08 22.671198 +15 26 49.99367
 2018-Sep-13 06:32  m  01 08 22.685069 +15 26 50.33630
 2018-Sep-13 06:33  m  01 08 22.698920 +15 26 50.67892
 2018-Sep-13 06:34  m  01 08 22.712749 +15 26 51.02153
 2018-Sep-13 06:35  m  01 08 22.726556 +15 26 51.36412
 2018-Sep-13 06:36  m  01 08 22.740343 +15 26 51.70670
 2018-Sep-13 06:37  m  01 08 22.754108 +15 26 52.04927
 2018-Sep-13 06:38  m  01 08 22.767852 +15 26 52.39182
